NORAD_CAT_ID,OBJECT_NAME,OBJECT_TYPE,EPOCH,MEAN_MOTION,ECCENTRICITY,INCLINATION,RA_OF_ASC_NODE,ARG_OF_PERICENTER,MEAN_ANOMALY,BSTAR,MEAN_MOTION_DOT,MEAN_MOTION_DDOT,TLE_LINE0,TLE_LINE1,TLE_LINE2,SEMIMAJOR_AXIS,PERIOD,APOGEE,PERIGEE,DECAYED
52122.0,STARLINK-3726,PAYLOAD,2023-03-22 11:57:20,15.08847917,0.0001842,53.2129,261.7611,73.1139,287.0054,0.00029272,4.375e-05,0.0,0 STARLINK-3726,1 52122U 22029AL  23081.49815592  .00004375  00000-0  29272-3 0  9998,2 52122  53.2129 261.7611 0001842  73.1139 287.0054 15.08847917 57265,6917.856,95.437,540.995,538.447,0.0
52122.0,STARLINK-3726,PAYLOAD,2023-03-22 18:18:53,15.08845195,0.0001275,53.2138,260.5678,95.3594,264.7544,0.00016428,2.328e-05,0.0,0 STARLINK-3726,1 52122U 22029AL  23081.76311358  .00002328  00000-0  16428-3 0  9994,2 52122  53.2138 260.5678 0001275  95.3594 264.7544 15.08845195 57303,6917.865,95.437,540.612,538.847,0.0
52122.0,STARLINK-3726,PAYLOAD,2023-03-23 05:26:35,15.08832401,0.0001755,53.2142,258.4888,65.6155,294.502,-5.8537e-05,-1.219e-05,0.0,0 STARLINK-3726,1 52122U 22029AL  23082.22679700 -.00001219  00000-0 -58537-4 0  9992,2 52122  53.2142 258.4888 0001755  65.6155 294.5020 15.08832401 57376,6917.904,95.438,540.983,538.555,0.0
52122.0,STARLINK-3726,PAYLOAD,2023-03-23 18:09:40,15.08836139,0.0001383,53.2149,256.1101,66.2756,293.8381,0.00023091,3.389e-05,0.0,0 STARLINK-3726,1 52122U 22029AL  23082.75671980  .00003389  00000-0  23091-3 0  9996,2 52122  53.2149 256.1101 0001383  66.2756 293.8381 15.08836139 57450,6917.892,95.438,540.714,538.8,0.0
52122.0,STARLINK-3726,PAYLOAD,2023-03-24 14:49:39,15.08868409,0.0001276,53.2146,252.2418,84.001,276.1127,0.00052435,8.073e-05,0.0,0 STARLINK-3726,1 52122U 22029AL  23083.61782128  .00008073  00000-0  52435-3 0  9998,2 52122  53.2146 252.2418 0001276  84.0010 276.1127 15.08868409 57588,6917.794,95.436,540.541,538.776,0.0
52122.0,STARLINK-3726,PAYLOAD,2023-03-24 18:00:25,15.0888705,0.0001249,53.2149,251.6466,78.8367,281.2766,0.0013412,0.00021149,0.0,0 STARLINK-3726,1 52122U 22029AL  23083.75029985  .00021149  00000-0  13412-2 0  9998,2 52122  53.2149 251.6466 0001249  78.8367 281.2766 15.08887050 57605,6917.737,95.435,540.466,538.738,0.0
52122.0,STARLINK-3726,PAYLOAD,2023-03-25 03:32:45,15.08805411,0.0001473,53.2148,249.8651,124.4204,235.6927,-0.0021453,-0.00034236,0.0,0 STARLINK-3726,1 52122U 22029AL  23084.14774670 -.00034236  00000-0 -21453-2 0  9997,2 52122  53.2148 249.8651 0001473 124.4204 235.6927 15.08805411 57665,6917.986,95.44,540.87,538.832,0.0
52122.0,STARLINK-3726,PAYLOAD,2023-03-25 17:51:15,15.08784684,0.0001223,53.2152,247.1879,114.1762,245.9358,0.0013273,0.00020867,0.0,0 STARLINK-3726,1 52122U 22029AL  23084.74392797  .00020867  00000-0  13273-2 0  9993,2 52122  53.2152 247.1879 0001223 114.1762 245.9358 15.08784684 57751,6918.049,95.441,540.761,539.068,0.0
52122.0,STARLINK-3726,PAYLOAD,2023-03-26 17:42:03,15.08842927,0.0001095,53.2147,242.7265,114.8517,245.259,0.0017719,0.00028027,0.0,0 STARLINK-3726,1 52122U 22029AL  23085.73754288  .00028027  00000-0  17719-2 0  9995,2 52122  53.2147 242.7265 0001095 114.8517 245.2590 15.08842927 57900,6917.871,95.437,540.494,538.979,0.0
52122.0,STARLINK-3726,PAYLOAD,2023-03-26 20:52:49,15.08850564,0.0001082,53.2147,242.1316,111.3282,248.7826,0.0017527,0.00027724,0.0,0 STARLINK-3726,1 52122U 22029AL  23085.87002205  .00027724  00000-0  17527-2 0  9995,2 52122  53.2147 242.1316 0001082 111.3282 248.7826 15.08850564 57926,6917.848,95.437,540.462,538.965,0.0
52122.0,STARLINK-3726,PAYLOAD,2023-03-27 09:35:54,15.08866847,0.000103,53.2159,239.7537,109.7354,250.3749,0.0010728,0.00016839,0.0,0 STARLINK-3726,1 52122U 22029AL  23086.39993573  .00016839  00000-0  10728-2 0  9991,2 52122  53.2159 239.7537 0001030 109.7354 250.3749 15.08866847 58004,6917.798,95.436,540.376,538.951,0.0
52122.0,STARLINK-3726,PAYLOAD,2023-03-27 14:22:03,15.08874349,0.0001081,53.2145,238.8604,107.0554,253.0557,0.0012253,0.00019285,0.0,0 STARLINK-3726,1 52122U 22029AL  23086.59865153  .00019285  00000-0  12253-2 0  9998,2 52122  53.2145 238.8604 0001081 107.0554 253.0557 15.08874349 58039,6917.775,95.435,540.388,538.893,0.0
52122.0,STARLINK-3726,PAYLOAD,2023-03-27 17:32:49,15.08881991,0.0001034,53.2142,238.2664,102.6437,257.4671,0.0014813,0.00023393,0.0,0 STARLINK-3726,1 52122U 22029AL  23086.73112800  .00023393  00000-0  14813-2 0  9997,2 52122  53.2142 238.2664 0001034 102.6437 257.4671 15.08881991 58053,6917.752,95.435,540.332,538.902,0.0
52122.0,STARLINK-3726,PAYLOAD,2023-03-28 03:05:07,15.08877945,0.0001216,53.2145,236.4826,69.2886,290.8236,0.0010908,0.00017133,0.0,0 STARLINK-3726,1 52122U 22029AL  23087.12856253  .00017133  00000-0  10908-2 0  9994,2 52122  53.2145 236.4826 0001216  69.2886 290.8236 15.08877945 58113,6917.764,95.435,540.471,538.788,0.0
52122.0,STARLINK-3726,PAYLOAD,2023-03-28 11:02:03,15.08842159,0.0001138,53.2142,234.9948,84.6713,275.4409,0.00043586,6.656e-05,0.0,0 STARLINK-3726,1 52122U 22029AL  23087.45976495  .00006656  00000-0  43586-3 0  9998,2 52122  53.2142 234.9948 0001138  84.6713 275.4409 15.08842159 58166,6917.874,95.437,540.526,538.952,0.0
52122.0,STARLINK-3726,PAYLOAD,2023-03-28 14:12:50,15.08839285,0.0001033,53.2143,234.4006,78.4916,281.6192,0.00080951,0.00012619,0.0,0 STARLINK-3726,1 52122U 22029AL  23087.59224581  .00012619  00000-0  80951-3 0  9998,2 52122  53.2143 234.4006 0001033  78.4916 281.6192 15.08839285 58183,6917.883,95.438,540.462,539.033,0.0
52122.0,STARLINK-3726,PAYLOAD,2023-03-28 17:23:36,15.08838937,0.000108,53.2143,233.806,71.6696,288.4413,0.001351,0.00021278,0.0,0 STARLINK-3726,1 52122U 22029AL  23087.72472622  .00021278  00000-0  13510-2 0  9991,2 52122  53.2143 233.8060 0001080  71.6696 288.4413 15.08838937 58205,6917.884,95.438,540.496,539.002,0.0
52122.0,STARLINK-3726,PAYLOAD,2023-03-29 02:55:54,15.08856961,0.0001143,53.2143,232.0217,71.1634,288.9482,0.0015034,0.00023731,0.0,0 STARLINK-3726,1 52122U 22029AL  23088.12216393  .00023731  00000-0  15034-2 0  9996,2 52122  53.2143 232.0217 0001143  71.1634 288.9482 15.08856961 58261,6917.829,95.436,540.484,538.903,0.0
52122.0,STARLINK-3726,PAYLOAD,2023-03-29 15:39:00,15.08851604,0.0001288,53.2144,229.642,72.7967,287.3166,0.00084766,0.00013233,0.0,0 STARLINK-3726,1 52122U 22029AL  23088.65208712  .00013233  00000-0  84766-3 0  9995,2 52122  53.2144 229.6420 0001288  72.7967 287.3166 15.08851604 58346,6917.845,95.437,540.601,538.819,0.0
52122.0,STARLINK-3726,PAYLOAD,2023-03-30 09:08:14,15.08851589,0.0001343,53.2137,226.3729,64.3432,295.7699,0.0004676,7.164e-05,0.0,0 STARLINK-3726,1 52122U 22029AL  23089.38072455  .00007164  00000-0  46760-3 0  9997,2 52122  53.2137 226.3729 0001343  64.3432 295.7699 15.08851589 58458,6917.845,95.437,540.639,538.781,0.0
52122.0,STARLINK-3726,PAYLOAD,2023-03-30 20:15:55,15.08874798,0.0001275,53.2141,224.2877,95.0324,265.0814,0.00079715,0.00012433,0.0,0 STARLINK-3726,1 52122U 22029AL  23089.84439227  .00012433  00000-0  79715-3 0  9993,2 52122  53.2141 224.2877 0001275  95.0324 265.0814 15.08874798 58523,6917.774,95.435,540.521,538.757,0.0
52122.0,STARLINK-3726,PAYLOAD,2023-03-31 08:59:01,15.08837806,9.21e-05,53.2155,221.9109,108.1821,251.9271,-0.0001221,-2.23e-05,0.0,0 STARLINK-3726,1 52122U 22029AL  23090.37431997 -.00002230  00000-0 -12210-3 0  9992,2 52122  53.2155 221.9109 0000921 108.1821 251.9271 15.08837806 58604,6917.887,95.438,540.389,539.115,0.0
52122.0,STARLINK-3726,PAYLOAD,2023-03-31 18:31:19,15.08856449,0.0001596,53.213,220.1223,123.472,236.6424,0.00055874,8.62e-05,0.0,0 STARLINK-3726,1 52122U 22029AL  23090.77175339  .00008620  00000-0  55874-3 0  9991,2 52122  53.2130 220.1223 0001596 123.4720 236.6424 15.08856449 58662,6917.83,95.437,540.799,538.591,0.0
52122.0,STARLINK-3726,PAYLOAD,2023-04-01 12:00:35,15.0882361,0.0001485,53.215,216.8519,114.1169,245.9979,0.00053141,8.176e-05,0.0,0 STARLINK-3726,1 52122U 22029AL  23091.50040854  .00008176  00000-0  53141-3 0  9997,2 52122  53.2150 216.8519 0001485 114.1169 245.9979 15.08823610 58779,6917.93,95.439,540.823,538.768,0.0
52122.0,STARLINK-3726,PAYLOAD,2023-04-01 13:35:58,15.08821192,0.0001618,53.2153,216.5549,117.1066,243.0091,0.00062494,9.667e-05,0.0,0 STARLINK-3726,1 52122U 22029AL  23091.56664998  .00009667  00000-0  62494-3 0  9991,2 52122  53.2153 216.5549 0001618 117.1066 243.0091 15.08821192 58787,6917.938,95.439,540.922,538.684,0.0
52122.0,STARLINK-3726,PAYLOAD,2023-04-01 15:11:21,15.08823487,0.0001261,53.2151,216.2579,107.2554,252.8576,0.00069336,0.00010759,0.0,0 STARLINK-3726,1 52122U 22029AL  23091.63289122  .00010759  00000-0  69336-3 0  9997,2 52122  53.2151 216.2579 0001261 107.2554 252.8576 15.08823487 58797,6917.931,95.439,540.668,538.924,0.0
52122.0,STARLINK-3726,PAYLOAD,2023-04-02 13:26:45,15.08855058,0.0001133,53.2146,212.0969,85.6452,274.4669,0.0011799,0.00018548,0.0,0 STARLINK-3726,1 52122U 22029AL  23092.56025294  .00018548  00000-0  11799-2 0  9991,2 52122  53.2146 212.0969 0001133  85.6452 274.4669 15.08855058 58930,6917.834,95.437,540.483,538.916,0.0
52122.0,STARLINK-3726,PAYLOAD,2023-04-03 00:34:27,15.08853503,0.0001268,53.2141,210.0155,88.7283,271.3854,0.00045423,6.951e-05,0.0,0 STARLINK-3726,1 52122U 22029AL  23093.02393014  .00006951  00000-0  45423-3 0  9998,2 52122  53.2141 210.0155 0001268  88.7283 271.3854 15.08853503 59009,6917.839,95.437,540.581,538.827,0.0
52122.0,STARLINK-3726,PAYLOAD,2023-04-03 11:42:09,15.08844967,0.0001553,53.2166,207.9353,108.5605,251.5556,5.4787e-05,5.84e-06,0.0,0 STARLINK-3726,1 52122U 22029AL  23093.48760954  .00000584  00000-0  54787-4 0  9999,2 52122  53.2166 207.9353 0001553 108.5605 251.5556 15.08844967 59077,6917.865,95.437,540.805,538.656,0.0
52122.0,STARLINK-3726,PAYLOAD,2023-04-04 11:32:56,15.08850143,0.0001344,53.2173,203.4749,106.049,254.065,0.00021092,3.071e-05,0.0,0 STARLINK-3726,1 52122U 22029AL  23094.48120501  .00003071  00000-0  21092-3 0  9994,2 52122  53.2173 203.4749 0001344 106.0490 254.0650 15.08850143 59221,6917.849,95.437,540.644,538.785,0.0
